[{"OBJECT_NAME":"ICEYE-X7","OBJECT_ID":"2020-068L","EPOCH":"2026-03-09T22:52:28.702272","MEAN_MOTION":15.29152508,"ECCENTRICITY":0.00068409,"INCLINATION":97.7412,"RA_OF_ASC_NODE":31.2076,"ARG_OF_PERICENTER":332.3045,"MEAN_ANOMALY":27.7829,"EPHEMERIS_TYPE":0,"CLASSIFICATION_TYPE":"U","NORAD_CAT_ID":46496,"ELEMENT_SET_NO":999,"REV_AT_EPOCH":29961,"BSTAR":0.0005654802,"MEAN_MOTION_DOT":0.00015947,"MEAN_MOTION_DDOT":0},{"OBJECT_NAME":"STARLINK-34652","OBJECT_ID":"2025-147T","EPOCH":"2026-03-09T17:45:47.482560","MEAN_MOTION":15.30252594,"ECCENTRICITY":0.00011897,"INCLINATION":53.1597,"RA_OF_ASC_NODE":242.2231,"ARG_OF_PERICENTER":57.1367,"MEAN_ANOMALY":302.9748,"EPHEMERIS_TYPE":0,"CLASSIFICATION_TYPE":"U","NORAD_CAT_ID":64772,"ELEMENT_SET_NO":999,"REV_AT_EPOCH":3876,"BSTAR":0.002016719,"MEAN_MOTION_DOT":0.00059951,"MEAN_MOTION_DDOT":0}]
